[{"OBJECT_NAME":"STARLINK-4623","OBJECT_ID":"2023-010AY","EPOCH":"2026-03-09T22:07:01.257312","MEAN_MOTION":14.983299,"ECCENTRICITY":0.00028457,"INCLINATION":70.0018,"RA_OF_ASC_NODE":23.8829,"ARG_OF_PERICENTER":266.8009,"MEAN_ANOMALY":93.2825,"EPHEMERIS_TYPE":0,"CLASSIFICATION_TYPE":"U","NORAD_CAT_ID":55315,"ELEMENT_SET_NO":999,"REV_AT_EPOCH":17329,"BSTAR":6.502102e-6,"MEAN_MOTION_DOT":-1.5e-7,"MEAN_MOTION_DDOT":0},{"OBJECT_NAME":"RROCI-2","OBJECT_ID":"2024-043J","EPOCH":"2026-03-09T21:40:56.693280","MEAN_MOTION":14.99383357,"ECCENTRICITY":0.00054118,"INCLINATION":97.8279,"RA_OF_ASC_NODE":200.9973,"ARG_OF_PERICENTER":337.3784,"MEAN_ANOMALY":22.7199,"EPHEMERIS_TYPE":0,"CLASSIFICATION_TYPE":"U","NORAD_CAT_ID":59106,"ELEMENT_SET_NO":999,"REV_AT_EPOCH":10988,"BSTAR":0.00035067832,"MEAN_MOTION_DOT":4.232e-5,"MEAN_MOTION_DDOT":0}]
